AQUA                    
1 27424U 02022A   26085.93278087  .00001027  00000+0  21470-3 0  9996
2 27424  98.4203  53.6156 0001047 117.6867 310.4635 14.62015327271251
CZ-4B R/B               
1 27432U 02024C   26085.64443741  .00000036  00000+0  41854-4 0  9994
2 27432  98.8803 138.9631 0049608 336.0034 187.8350 14.14550576231638
MIDORI II (ADEOS-II)    
1 27597U 02056A   26085.88478697  .00000328  00000+0  14676-3 0  9990
2 27597  98.7798  44.4844 0000844  23.0000 337.1219 14.29297736212752
H-2A R/B                
1 27601U 02056E   26085.94095353  .00000304  00000+0  12069-3 0  9995
2 27601  98.3232  45.6529 0071319 109.8198 292.3185 14.33771847216580
CZ-4B R/B               
1 28059U 03049C   26085.98802310  .00000362  00000+0  94471-4 0  9991
2 28059  98.6893  81.5736 0048170 177.5517 182.5924 14.55035299189116
CZ-2C R/B               
1 28222U 04012C   26085.61147920  .00061685  00000+0  58652-3 0  9998
2 28222  97.7191 152.5308 0013143 241.4600 118.5336 15.66558380206928
SL-16 R/B               
1 28353U 04021B   26085.42805724  .00000102  00000+0  77697-4 0  9993
2 28353  71.0005 197.3658 0004839 349.4453  10.6567 14.14593929125203
CZ-4B R/B               
1 28415U 04035C   26085.98778980  .00008684  00000+0  30354-3 0  9992
2 28415  97.3476 120.0242 0029968 266.8519  92.9292 15.29357981182554
CZ-2C R/B               
1 28480U 04046B   26085.73469792  .00000123  00000+0  60125-4 0  9997
2 28480  98.1976 359.6568 0140581 104.3458 257.3377 14.26997900110935
ARIANE 5 R/B            
1 28499U 04049H   26085.94613989  .00000807  00000+0  95598-4 0  9993
2 28499  98.2654 255.0524 0082958 295.5244  63.7408 14.85296050148353
CZ-2D R/B               
1 28738U 05024B   26085.95414351  .00049885  00000+0  57737-3 0  9997
2 28738  97.3587 101.7529 0002758 348.7379  11.3817 15.61701857142477
ALOS (DAICHI)           
1 28931U 06002A   26085.86221495  .00001271  00000+0  22084-3 0  9998
2 28931  98.1245  41.7351 0000805 103.5214 256.6081 14.69860279 76007
