CCSDS_OMM_VERS = 2.0
CREATION_DATE  = 
ORIGINATOR     = 

OBJECT_NAME    = AQUA
OBJECT_ID      = 2002-022A
CENTER_NAME    = EARTH
REF_FRAME      = TEME
TIME_SYSTEM    = UTC
MEAN_ELEMENT_THEORY = SGP/SGP4

EPOCH          = 2026-03-26T22:23:12.267168
MEAN_MOTION    = 14.62015327
ECCENTRICITY   = .00010473
INCLINATION    = 98.4203
RA_OF_ASC_NODE = 53.6156
ARG_OF_PERICENTER = 117.6867
MEAN_ANOMALY   = 310.4635

EPHEMERIS_TYPE = 0
CLASSIFICATION_TYPE = U
NORAD_CAT_ID   = 27424
ELEMENT_SET_NO = 999
REV_AT_EPOCH   = 27125
BSTAR          = .21469581E-3
MEAN_MOTION_DOT = .1027E-4
MEAN_MOTION_DDOT = 0

CCSDS_OMM_VERS = 2.0
CREATION_DATE  = 
ORIGINATOR     = 

OBJECT_NAME    = CZ-4B R/B
OBJECT_ID      = 2002-024C
CENTER_NAME    = EARTH
REF_FRAME      = TEME
TIME_SYSTEM    = UTC
MEAN_ELEMENT_THEORY = SGP/SGP4

EPOCH          = 2026-03-26T15:27:59.392224
MEAN_MOTION    = 14.14550576
ECCENTRICITY   = .00496081
INCLINATION    = 98.8803
RA_OF_ASC_NODE = 138.9631
ARG_OF_PERICENTER = 336.0034
MEAN_ANOMALY   = 187.8350

EPHEMERIS_TYPE = 0
CLASSIFICATION_TYPE = U
NORAD_CAT_ID   = 27432
ELEMENT_SET_NO = 999
REV_AT_EPOCH   = 23163
BSTAR          = .41853856E-4
MEAN_MOTION_DOT = .36E-6
MEAN_MOTION_DDOT = 0

CCSDS_OMM_VERS = 2.0
CREATION_DATE  = 
ORIGINATOR     = 

OBJECT_NAME    = MIDORI II (ADEOS-II)
OBJECT_ID      = 2002-056A
CENTER_NAME    = EARTH
REF_FRAME      = TEME
TIME_SYSTEM    = UTC
MEAN_ELEMENT_THEORY = SGP/SGP4

EPOCH          = 2026-03-26T21:14:05.594208
MEAN_MOTION    = 14.29297736
ECCENTRICITY   = .00008441
INCLINATION    = 98.7798
RA_OF_ASC_NODE = 44.4844
ARG_OF_PERICENTER = 23.0000
MEAN_ANOMALY   = 337.1219

EPHEMERIS_TYPE = 0
CLASSIFICATION_TYPE = U
NORAD_CAT_ID   = 27597
ELEMENT_SET_NO = 999
REV_AT_EPOCH   = 21275
BSTAR          = .14675538E-3
MEAN_MOTION_DOT = .328E-5
MEAN_MOTION_DDOT = 0

CCSDS_OMM_VERS = 2.0
CREATION_DATE  = 
ORIGINATOR     = 

OBJECT_NAME    = H-2A R/B
OBJECT_ID      = 2002-056E
CENTER_NAME    = EARTH
REF_FRAME      = TEME
TIME_SYSTEM    = UTC
MEAN_ELEMENT_THEORY = SGP/SGP4

EPOCH          = 2026-03-26T22:34:58.384992
MEAN_MOTION    = 14.33771847
ECCENTRICITY   = .00713196
INCLINATION    = 98.3232
RA_OF_ASC_NODE = 45.6529
ARG_OF_PERICENTER = 109.8198
MEAN_ANOMALY   = 292.3185

EPHEMERIS_TYPE = 0
CLASSIFICATION_TYPE = U
NORAD_CAT_ID   = 27601
ELEMENT_SET_NO = 999
REV_AT_EPOCH   = 21658
BSTAR          = .12069288E-3
MEAN_MOTION_DOT = .304E-5
MEAN_MOTION_DDOT = 0

CCSDS_OMM_VERS = 2.0
CREATION_DATE  = 
ORIGINATOR     = 

OBJECT_NAME    = CZ-4B R/B
OBJECT_ID      = 2003-049C
CENTER_NAME    = EARTH
REF_FRAME      = TEME
TIME_SYSTEM    = UTC
MEAN_ELEMENT_THEORY = SGP/SGP4

EPOCH          = 2026-03-26T23:42:45.195840
MEAN_MOTION    = 14.55035299
ECCENTRICITY   = .00481706
INCLINATION    = 98.6893
RA_OF_ASC_NODE = 81.5736
ARG_OF_PERICENTER = 177.5517
MEAN_ANOMALY   = 182.5924

EPHEMERIS_TYPE = 0
CLASSIFICATION_TYPE = U
NORAD_CAT_ID   = 28059
ELEMENT_SET_NO = 999
REV_AT_EPOCH   = 18911
BSTAR          = .9447126E-4
MEAN_MOTION_DOT = .362E-5
MEAN_MOTION_DDOT = 0

CCSDS_OMM_VERS = 2.0
CREATION_DATE  = 
ORIGINATOR     = 

OBJECT_NAME    = CZ-2C R/B
OBJECT_ID      = 2004-012C
CENTER_NAME    = EARTH
REF_FRAME      = TEME
TIME_SYSTEM    = UTC
MEAN_ELEMENT_THEORY = SGP/SGP4

EPOCH          = 2026-03-26T14:40:31.802880
MEAN_MOTION    = 15.66558380
ECCENTRICITY   = .00131437
INCLINATION    = 97.7191
RA_OF_ASC_NODE = 152.5308
ARG_OF_PERICENTER = 241.4600
MEAN_ANOMALY   = 118.5336

EPHEMERIS_TYPE = 0
CLASSIFICATION_TYPE = U
NORAD_CAT_ID   = 28222
ELEMENT_SET_NO = 999
REV_AT_EPOCH   = 20692
BSTAR          = .58651718E-3
MEAN_MOTION_DOT = .61685E-3
MEAN_MOTION_DDOT = 0

CCSDS_OMM_VERS = 2.0
CREATION_DATE  = 
ORIGINATOR     = 

OBJECT_NAME    = SL-16 R/B
OBJECT_ID      = 2004-021B
CENTER_NAME    = EARTH
REF_FRAME      = TEME
TIME_SYSTEM    = UTC
MEAN_ELEMENT_THEORY = SGP/SGP4

EPOCH          = 2026-03-26T10:16:24.145536
MEAN_MOTION    = 14.14593929
ECCENTRICITY   = .00048398
INCLINATION    = 71.0005
RA_OF_ASC_NODE = 197.3658
ARG_OF_PERICENTER = 349.4453
MEAN_ANOMALY   = 10.6567

EPHEMERIS_TYPE = 0
CLASSIFICATION_TYPE = U
NORAD_CAT_ID   = 28353
ELEMENT_SET_NO = 999
REV_AT_EPOCH   = 12520
BSTAR          = .77697456E-4
MEAN_MOTION_DOT = .102E-5
MEAN_MOTION_DDOT = 0

CCSDS_OMM_VERS = 2.0
CREATION_DATE  = 
ORIGINATOR     = 

OBJECT_NAME    = CZ-4B R/B
OBJECT_ID      = 2004-035C
CENTER_NAME    = EARTH
REF_FRAME      = TEME
TIME_SYSTEM    = UTC
MEAN_ELEMENT_THEORY = SGP/SGP4

EPOCH          = 2026-03-26T23:42:25.038720
MEAN_MOTION    = 15.29357981
ECCENTRICITY   = .00299683
INCLINATION    = 97.3476
RA_OF_ASC_NODE = 120.0242
ARG_OF_PERICENTER = 266.8519
MEAN_ANOMALY   = 92.9292

EPHEMERIS_TYPE = 0
CLASSIFICATION_TYPE = U
NORAD_CAT_ID   = 28415
ELEMENT_SET_NO = 999
REV_AT_EPOCH   = 18255
BSTAR          = .30354217E-3
MEAN_MOTION_DOT = .8684E-4
MEAN_MOTION_DDOT = 0

CCSDS_OMM_VERS = 2.0
CREATION_DATE  = 
ORIGINATOR     = 

OBJECT_NAME    = CZ-2C R/B
OBJECT_ID      = 2004-046B
CENTER_NAME    = EARTH
REF_FRAME      = TEME
TIME_SYSTEM    = UTC
MEAN_ELEMENT_THEORY = SGP/SGP4

EPOCH          = 2026-03-26T17:37:57.900288
MEAN_MOTION    = 14.26997900
ECCENTRICITY   = .01405815
INCLINATION    = 98.1976
RA_OF_ASC_NODE = 359.6568
ARG_OF_PERICENTER = 104.3458
MEAN_ANOMALY   = 257.3377

EPHEMERIS_TYPE = 0
CLASSIFICATION_TYPE = U
NORAD_CAT_ID   = 28480
ELEMENT_SET_NO = 999
REV_AT_EPOCH   = 11093
BSTAR          = .60125231E-4
MEAN_MOTION_DOT = .123E-5
MEAN_MOTION_DDOT = 0

CCSDS_OMM_VERS = 2.0
CREATION_DATE  = 
ORIGINATOR     = 

OBJECT_NAME    = ARIANE 5 R/B
OBJECT_ID      = 2004-049H
CENTER_NAME    = EARTH
REF_FRAME      = TEME
TIME_SYSTEM    = UTC
MEAN_ELEMENT_THEORY = SGP/SGP4

EPOCH          = 2026-03-26T22:42:26.486496
MEAN_MOTION    = 14.85296050
ECCENTRICITY   = .00829584
INCLINATION    = 98.2654
RA_OF_ASC_NODE = 255.0524
ARG_OF_PERICENTER = 295.5244
MEAN_ANOMALY   = 63.7408

EPHEMERIS_TYPE = 0
CLASSIFICATION_TYPE = U
NORAD_CAT_ID   = 28499
ELEMENT_SET_NO = 999
REV_AT_EPOCH   = 14835
BSTAR          = .95597915E-4
MEAN_MOTION_DOT = .807E-5
MEAN_MOTION_DDOT = 0

CCSDS_OMM_VERS = 2.0
CREATION_DATE  = 
ORIGINATOR     = 

OBJECT_NAME    = CZ-2D R/B
OBJECT_ID      = 2005-024B
CENTER_NAME    = EARTH
REF_FRAME      = TEME
TIME_SYSTEM    = UTC
MEAN_ELEMENT_THEORY = SGP/SGP4

EPOCH          = 2026-03-26T22:53:57.999264
MEAN_MOTION    = 15.61701857
ECCENTRICITY   = .00027582
INCLINATION    = 97.3587
RA_OF_ASC_NODE = 101.7529
ARG_OF_PERICENTER = 348.7379
MEAN_ANOMALY   = 11.3817

EPHEMERIS_TYPE = 0
CLASSIFICATION_TYPE = U
NORAD_CAT_ID   = 28738
ELEMENT_SET_NO = 999
REV_AT_EPOCH   = 14247
BSTAR          = .57737029E-3
MEAN_MOTION_DOT = .49885E-3
MEAN_MOTION_DDOT = 0

CCSDS_OMM_VERS = 2.0
CREATION_DATE  = 
ORIGINATOR     = 

OBJECT_NAME    = ALOS (DAICHI)
OBJECT_ID      = 2006-002A
CENTER_NAME    = EARTH
REF_FRAME      = TEME
TIME_SYSTEM    = UTC
MEAN_ELEMENT_THEORY = SGP/SGP4

EPOCH          = 2026-03-26T20:41:35.371680
MEAN_MOTION    = 14.69860279
ECCENTRICITY   = .00008053
INCLINATION    = 98.1245
RA_OF_ASC_NODE = 41.7351
ARG_OF_PERICENTER = 103.5214
MEAN_ANOMALY   = 256.6081

EPHEMERIS_TYPE = 0
CLASSIFICATION_TYPE = U
NORAD_CAT_ID   = 28931
ELEMENT_SET_NO = 999
REV_AT_EPOCH   = 7600
BSTAR          = .22084387E-3
MEAN_MOTION_DOT = .1271E-4
MEAN_MOTION_DDOT = 0

